TYVAK-0172              
1 46267U 20059C   26068.62538449  .00278441  00000+0  21652-2 0  9997
2 46267  97.7214 311.0561 0003543  67.1132 293.0503 15.70916107303116
STARLINK-11394 [DTC]    
1 62218U 24231A   26068.57697862  .00239088  00000+0  19115-2 0  9991
2 62218  53.1570 101.8352 0001315  82.4093 277.7074 15.69842240 73395
