[{"OBJECT_NAME":"TYVAK-0172","OBJECT_ID":"2020-059C","EPOCH":"2026-03-09T15:00:33.219936","MEAN_MOTION":15.70916107,"ECCENTRICITY":0.0003543,"INCLINATION":97.7214,"RA_OF_ASC_NODE":311.0561,"ARG_OF_PERICENTER":67.1132,"MEAN_ANOMALY":293.0503,"EPHEMERIS_TYPE":0,"CLASSIFICATION_TYPE":"U","NORAD_CAT_ID":46267,"ELEMENT_SET_NO":999,"REV_AT_EPOCH":30311,"BSTAR":0.0021652,"MEAN_MOTION_DOT":0.00278441,"MEAN_MOTION_DDOT":0},{"OBJECT_NAME":"STARLINK-11394 [DTC]","OBJECT_ID":"2024-231A","EPOCH":"2026-03-09T13:50:50.952768","MEAN_MOTION":15.6984224,"ECCENTRICITY":0.0001315,"INCLINATION":53.157,"RA_OF_ASC_NODE":101.8352,"ARG_OF_PERICENTER":82.4093,"MEAN_ANOMALY":277.7074,"EPHEMERIS_TYPE":0,"CLASSIFICATION_TYPE":"U","NORAD_CAT_ID":62218,"ELEMENT_SET_NO":999,"REV_AT_EPOCH":7339,"BSTAR":0.0019115,"MEAN_MOTION_DOT":0.00239088,"MEAN_MOTION_DDOT":0}]
